OBJECT_NAME,OBJECT_ID,EPOCH,MEAN_MOTION,ECCENTRICITY,INCLINATION,RA_OF_ASC_NODE,ARG_OF_PERICENTER,MEAN_ANOMALY,EPHEMERIS_TYPE,CLASSIFICATION_TYPE,NORAD_CAT_ID,ELEMENT_SET_NO,REV_AT_EPOCH,BSTAR,MEAN_MOTION_DOT,MEAN_MOTION_DDOT
SIRION PATHFINDER-2,2018-099B,2026-06-05T02:10:49.948032,15.14436976,.0008178,97.4254,205.4362,352.2997,7.8108,0,U,43759,999,41079,.30112E-3,.5474E-4,0
CORVUS BC4,2018-099K,2026-06-06T14:27:59.760864,15.12410407,.0009268,97.4067,200.8934,46.5090,313.6910,0,U,43767,999,41080,.35514E-3,.6111E-4,0
M2 PATHFINDER,2020-037E,2026-06-06T11:21:11.111328,15.04629336,.00114912,97.8157,348.5839,183.0917,177.0240,0,U,45727,999,32388,.24486953E-3,.3381E-4,0
NETSAT-4,2020-068U,2026-06-06T18:04:51.350304,15.43515061,.0005202,97.8609,165.1587,19.7037,340.4409,0,U,46504,999,31416,.49614E-3,.22196E-3,0
NETSAT-3,2020-068V,2026-06-06T13:22:00.050592,15.42309856,.0005634,97.8660,163.1764,37.8178,322.3462,0,U,46505,999,31404,.54337E-3,.2336E-3,0
NETSAT-1,2020-068W,2026-06-06T13:43:08.300640,15.34388994,.0006191,97.8751,157.6478,61.7667,298.4199,0,U,46506,999,31367,.51189E-3,.16988E-3,0
NETSAT-2,2020-068X,2026-06-06T13:09:51.948288,15.45537706,.0004855,97.8623,164.7938,55.5994,304.5712,0,U,46507,999,31409,.59055E-3,.28336E-3,0
GREENCUBE (IO-117),2022-080E,2026-06-01T11:09:37.753056,6.42583280,.00088692,70.1435,303.7143,293.3663,66.6064,0,U,53109,999,9105,0,-.3E-7,0
SITRO-AIS 5 (KATYS),2023-091L,2026-06-06T20:42:37.411200,15.29216361,.001261,97.5060,221.6659,135.4950,224.7305,0,U,57176,999,16276,.52112E-3,.14744E-3,0
SITRO-AIS 6 (CHIRKIN),2023-091AC,2026-06-06T19:38:12.625152,15.25735482,.0012888,97.5067,220.7945,138.5225,221.6993,0,U,57192,999,16270,.44993E-3,.11437E-3,0
SITRO-AIS 8 (ANOKHIN),2023-091AD,2026-06-06T19:58:51.076704,15.31853197,.0011806,97.5056,223.1821,131.6508,228.5746,0,U,57193,999,16286,.51876E-3,.15924E-3,0
SITRO-AIS 7 (FARTUSHNIY),2023-091AE,2026-06-06T19:39:42.665184,15.25428387,.0012715,97.5065,220.6260,139.3418,220.8772,0,U,57194,999,16269,.43442E-3,.10937E-3,0
SITRO-AIS 10 (BURDAEV),2023-091AK,2026-06-06T20:12:48.978720,15.38216183,.0007966,97.5081,228.1405,110.4958,249.7143,0,U,57199,999,16317,.59735E-3,.22463E-3,0
SITRO-AIS 9 (SHCHUKIN),2023-091AM,2026-06-06T20:46:09.670080,15.37740776,.00082,97.5078,227.9021,110.8129,249.3994,0,U,57201,999,16316,.59162E-3,.21906E-3,0
SITRO-AIS 12 (SMIRENNIY),2023-091AQ,2026-06-06T20:35:27.567744,15.38030387,.0007853,97.5091,228.3553,105.6862,254.5250,0,U,57204,999,16318,.58731E-3,.21949E-3,0
SITRO-AIS 11 (SHEFFER),2023-091AU,2026-06-06T19:25:11.246016,15.38442950,.000773,97.5089,228.5453,105.9150,254.2947,0,U,57208,999,16319,.5857E-3,.22184E-3,0
SITRO-AIS 25,2024-039R,2026-06-06T20:34:22.757376,14.93456593,.0144825,95.3906,227.9942,5.0372,355.2270,0,U,59066,999,12318,.31826E-3,.4079E-4,0
SITRO-AIS 26,2024-039S,2026-06-06T20:34:19.928640,14.93253720,.0145181,95.3907,227.8940,5.6086,354.6723,0,U,59067,999,12317,.32706E-3,.4174E-4,0
SITRO-AIS 27,2024-039T,2026-06-06T19:55:38.674272,14.93673380,.0144263,95.3912,228.1425,4.3872,355.8579,0,U,59068,999,12319,.28086E-3,.3611E-4,0
SITRO-AIS 28,2024-039U,2026-06-06T20:59:58.171776,14.93707517,.0144077,95.3913,228.2199,4.0913,356.1453,0,U,59071,999,12320,.33899E-3,.4368E-4,0
GRBBETA,2024-128C,2026-06-06T14:25:16.373280,15.06565866,.0042034,61.9899,253.4064,132.5127,227.9529,0,U,60237,999,10467,.36512E-3,.5323E-4,0
OOV-CUBE (TUBSAT-30),2024-128F,2026-06-06T16:12:20.918304,15.02727815,.0045953,61.9952,262.2263,131.4155,229.0900,0,U,60240,999,10453,.23435E-3,.3003E-4,0
ROBUSTA-3A (MEDITERRANEE),2024-128J,2026-06-06T14:48:32.847840,15.11543644,.0042816,61.9860,245.6203,125.8059,234.7027,0,U,60243,999,10482,.5628E-3,.959E-4,0
LASARSAT,2024-247Q,2026-06-03T22:10:16.072896,15.45494859,.00080478,44.9754,336.7002,258.6055,101.3931,0,U,62391,999,8126,.75515127E-3,.36882E-3,0
CROCUBE,2024-247T,2026-06-06T18:40:03.612576,15.47511463,.000814,44.9730,318.1795,277.3211,82.6754,0,U,62394,999,8173,.91314E-3,.47988E-3,0
FORESAIL-1 PRIME,2025-276DS,2026-06-06T10:54:01.714464,15.18604799,.00036299,97.4199,230.9223,125.6883,234.4690,0,U,66778,999,2877,.29553438E-3,.6049E-4,0
KNACKSAT-2,1998-067XZ,2026-06-06T06:20:58.495488,15.58973490,.00105336,51.6302,349.3788,167.5745,192.5509,0,U,67683,999,1857,.81732863E-3,.64955E-3,0
