SIRION PATHFINDER-2     
1 43759U 18099B   26156.09085588  .00005474  00000+0  30112-3 0  9997
2 43759  97.4254 205.4362 0008178 352.2997   7.8108 15.14436976410795
CORVUS BC4              
1 43767U 18099K   26157.60277501  .00006111  00000+0  35514-3 0  9992
2 43767  97.4067 200.8934 0009268  46.5090 313.6910 15.12410407410808
M2 PATHFINDER           
1 45727U 20037E   26157.47304527  .00003381  00000+0  24487-3 0  9992
2 45727  97.8157 348.5839 0011491 183.0917 177.0240 15.04629336323883
NETSAT-4                
1 46504U 20068U   26157.75337211  .00022196  00000+0  49614-3 0  9991
2 46504  97.8609 165.1587 0005202  19.7037 340.4409 15.43515061314169
NETSAT-3                
1 46505U 20068V   26157.55694503  .00023360  00000+0  54337-3 0  9992
2 46505  97.8660 163.1764 0005634  37.8178 322.3462 15.42309856314045
NETSAT-1                
1 46506U 20068W   26157.57162385  .00016988  00000+0  51189-3 0  9993
2 46506  97.8751 157.6478 0006191  61.7667 298.4199 15.34388994313674
NETSAT-2                
1 46507U 20068X   26157.54851792  .00028336  00000+0  59055-3 0  9998
2 46507  97.8623 164.7938 0004855  55.5994 304.5712 15.45537706314098
GREENCUBE (IO-117)      
1 53109U 22080E   26152.46502029 -.00000003  00000+0  00000+0 0  9996
2 53109  70.1435 303.7143 0008869 293.3663  66.6064  6.42583280 91055
SITRO-AIS 5 (KATYS)     
1 57176U 23091L   26157.86293300  .00014744  00000+0  52112-3 0  9996
2 57176  97.5060 221.6659 0012610 135.4950 224.7305 15.29216361162764
SITRO-AIS 6 (CHIRKIN)   
1 57192U 23091AC  26157.81820168  .00011437  00000+0  44993-3 0  9991
2 57192  97.5067 220.7945 0012888 138.5225 221.6993 15.25735482162702
SITRO-AIS 8 (ANOKHIN)   
1 57193U 23091AD  26157.83253561  .00015924  00000+0  51876-3 0  9994
2 57193  97.5056 223.1821 0011806 131.6508 228.5746 15.31853197162868
SITRO-AIS 7 (FARTUSHNIY)
1 57194U 23091AE  26157.81924381  .00010937  00000+0  43442-3 0  9997
2 57194  97.5065 220.6260 0012715 139.3418 220.8772 15.25428387162690
SITRO-AIS 10 (BURDAEV)  
1 57199U 23091AK  26157.84223355  .00022463  00000+0  59735-3 0  9997
2 57199  97.5081 228.1405 0007966 110.4958 249.7143 15.38216183163177
SITRO-AIS 9 (SHCHUKIN)  
1 57201U 23091AM  26157.86538970  .00021906  00000+0  59162-3 0  9990
2 57201  97.5078 227.9021 0008200 110.8129 249.3994 15.37740776163162
SITRO-AIS 12 (SMIRENNIY)
1 57204U 23091AQ  26157.85795796  .00021949  00000+0  58731-3 0  9991
2 57204  97.5091 228.3553 0007853 105.6862 254.5250 15.38030387163180
SITRO-AIS 11 (SHEFFER)  
1 57208U 23091AU  26157.80915794  .00022184  00000+0  58570-3 0  9995
2 57208  97.5089 228.5453 0007730 105.9150 254.2947 15.38442950163193
SITRO-AIS 25            
1 59066U 24039R   26157.85720784  .00004079  00000+0  31826-3 0  9998
2 59066  95.3906 227.9942 0144825   5.0372 355.2270 14.93456593123184
SITRO-AIS 26            
1 59067U 24039S   26157.85717510  .00004174  00000+0  32706-3 0  9996
2 59067  95.3907 227.8940 0145181   5.6086 354.6723 14.93253720123179
SITRO-AIS 27            
1 59068U 24039T   26157.83030873  .00003611  00000+0  28086-3 0  9996
2 59068  95.3912 228.1425 0144263   4.3872 355.8579 14.93673380123199
SITRO-AIS 28            
1 59071U 24039U   26157.87497884  .00004368  00000+0  33899-3 0  9991
2 59071  95.3913 228.2199 0144077   4.0913 356.1453 14.93707517123206
GRBBETA                 
1 60237U 24128C   26157.60088395  .00005323  00000+0  36512-3 0  9997
2 60237  61.9899 253.4064 0042034 132.5127 227.9529 15.06565866104672
OOV-CUBE (TUBSAT-30)    
1 60240U 24128F   26157.67524211  .00003003  00000+0  23435-3 0  9993
2 60240  61.9952 262.2263 0045953 131.4155 229.0900 15.02727815104538
ROBUSTA-3A (MEDITERRAN*)
1 60243U 24128J   26157.61704685  .00009590  00000+0  56280-3 0  9996
2 60243  61.9860 245.6203 0042816 125.8059 234.7027 15.11543644104824
LASARSAT                
1 62391U 24247Q   26154.92379714  .00036882  00000+0  75515-3 0  9992
2 62391  44.9754 336.7002 0008047 258.6055 101.3931 15.45494859 81266
CROCUBE                 
1 62394U 24247T   26157.77781959  .00047988  00000+0  91314-3 0  9993
2 62394  44.9730 318.1795 0008140 277.3211  82.6754 15.47511463 81731
FORESAIL-1 PRIME        
1 66778U 25276DS  26157.45418651  .00006049  00000+0  29553-3 0  9996
2 66778  97.4199 230.9223 0003629 125.6883 234.4690 15.18604799 28771
KNACKSAT-2              
1 67683U 98067XZ  26157.26456592  .00064955  00000+0  81733-3 0  9993
2 67683  51.6302 349.3788 0010533 167.5745 192.5509 15.58973490 18571
